[Satellite]
VERSION=1.1
NAME=SHIJIAN-17 (SJ-17)
NICKNAME=SHIJIAN-17 (SJ-17)
TLE1=1 41838U 16065A   17186.24752771 -.00000359  00000-0  00000-0 0  9998
TLE2=2 41838   0.0182 129.2031 0000684  47.5474 320.6813  1.00273588  2452
